2024-039P               
1 59064U 24039P   24061.94343616  .00013334  00000+0  56862-3 0  9994
2 59064  97.3817  25.3520 0016761 229.9149 130.0620 15.22925632   262
2024-039Q               
1 59065U 24039Q   24062.20522901  .00007524  00000+0  31485-3 0  9999
2 59065  97.3824  25.6130 0013830 219.2149 140.8090 15.23772139   271
2024-039R               
1 59066U 24039R   24062.19050055  .00008902  00000+0  87907-3 0  9995
2 59066  95.3915  25.0406 0175422 351.4086   8.4143 14.81187939   264
2024-039S               
1 59067U 24039S   24061.92025365  .00010276  00000+0  10131-2 0  9993
2 59067  95.3927  24.8585 0175559 352.2904   7.5615 14.81208668   225
2024-039T               
1 59068U 24039T   24062.19034970  .00008627  00000+0  84993-3 0  9991
2 59068  95.3923  25.0401 0175171 351.3372   8.4833 14.81311397   261
2024-040A               
1 59069U 24040A   24060.66959573 -.00000176  00000+0  00000+0 0  9994
2 59069  27.6946 351.7233 7290395 179.5951  89.9948  2.27620421    04
2024-040B               
1 59070U 24040B   24060.65146005 -.00000365  29553-6  00000+0 0  9994
2 59070  27.6680 351.7493 7232175 178.5034  79.1556  2.39359911    04
2024-039U               
1 59071U 24039U   24062.19030579  .00007937  00000+0  78223-3 0  9998
2 59071  95.3925  25.0437 0174880 351.3044   8.5148 14.81345344   267
2024-039V               
1 59072U 24039V   24061.61203708 -.00004494  00000+0 -12917-2 0  9995
2 59072  88.9982  23.6634 0014654 294.3190  65.6881 14.45056863   186
FREGAT R/B              
1 59073U 24039W   24061.95505001  .00004150  00000+0  11089-2 0  9990
2 59073  89.0041  23.6137 0032217 275.6092  84.1427 14.47908264   221
