OBJECT_NAME,OBJECT_ID,EPOCH,MEAN_MOTION,ECCENTRICITY,INCLINATION,RA_OF_ASC_NODE,ARG_OF_PERICENTER,MEAN_ANOMALY,EPHEMERIS_TYPE,CLASSIFICATION_TYPE,NORAD_CAT_ID,ELEMENT_SET_NO,REV_AT_EPOCH,BSTAR,MEAN_MOTION_DOT,MEAN_MOTION_DDOT
2024-039P,2024-039P,2024-03-01T22:38:32.884224,15.22925632,0.0016761,97.3817,25.352,229.9149,130.062,0,U,59064,999,26,0.00056862,0.00013334,0
2024-039Q,2024-039Q,2024-03-02T04:55:31.786464,15.23772139,0.001383,97.3824,25.613,219.2149,140.809,0,U,59065,999,27,0.00031485,7.524e-05,0
2024-039R,2024-039R,2024-03-02T04:34:19.247520,14.81187939,0.0175422,95.3915,25.0406,351.4086,8.4143,0,U,59066,999,26,0.00087907,8.902e-05,0
2024-039S,2024-039S,2024-03-01T22:05:09.915360,14.81208668,0.0175559,95.3927,24.8585,352.2904,7.5615,0,U,59067,999,22,0.0010131,0.00010276,0
2024-039T,2024-039T,2024-03-02T04:34:06.214080,14.81311397,0.0175171,95.3923,25.0401,351.3372,8.4833,0,U,59068,999,26,0.00084993,8.627e-05,0
2024-040A,2024-040A,2024-02-29T16:04:13.071072,2.27620421,0.7290395,27.6946,351.7233,179.5951,89.9948,0,U,59069,999,0,0,-1.76e-06,0
2024-040B,2024-040B,2024-02-29T15:38:06.148320,2.39359911,0.7232175,27.668,351.7493,178.5034,79.1556,0,U,59070,999,0,0,-3.65e-06,2.9553e-07
2024-039U,2024-039U,2024-03-02T04:34:02.420256,14.81345344,0.017488,95.3925,25.0437,351.3044,8.5148,0,U,59071,999,26,0.00078223,7.937e-05,0
2024-039V,2024-039V,2024-03-01T14:41:20.003712,14.45056863,0.0014654,88.9982,23.6634,294.319,65.6881,0,U,59072,999,18,-0.0012917,-4.494e-05,0
FREGAT R/B,2024-039W,2024-03-01T22:55:16.320864,14.47908264,0.0032217,89.0041,23.6137,275.6092,84.1427,0,U,59073,999,22,0.0011089,4.15e-05,0
